HELIOS 2A               
1 28492U 04049A   22235.53507600  .00000932  00000+0  94936-4 0  9990
2 28492  98.2357 181.7058 0013557 216.8763 143.1504 14.93274052945132
CFESAT                  
1 30777U 07006F   22235.16910110  .00048686  00000+0  48235-3 0  9996
2 30777  35.4162 215.4969 0005751 264.3507  95.6572 15.64697056859519
SPIRALE A               
1 33751U 09008C   22234.42362794  .00000085  00000+0  42955-3 0  9996
2 33751   1.9911 193.6017 5439252   9.3263 357.5926  4.58858752197840
SPIRALE B               
1 33752U 09008D   22234.04399697  .00004892  00000+0  98830-3 0  9990
2 33752   2.1367  77.2650 6863748 224.7399  54.0453  2.82739658126938
SAPPHIRE                
1 39088U 13009C   22235.45601764  .00000027  00000+0  24873-4 0  9994
2 39088  98.4257  69.5345 0012597  78.7679 281.4921 14.34317149496749
